[{"OBJECT_NAME":"FENGYUN 1C DEB","OBJECT_ID":"1999-025APU","EPOCH":"2026-04-05T02:52:47.421120","MEAN_MOTION":14.23102285,"ECCENTRICITY":0.00308811,"INCLINATION":99.039,"RA_OF_ASC_NODE":159.425,"ARG_OF_PERICENTER":306.4835,"MEAN_ANOMALY":83.327,"EPHEMERIS_TYPE":0,"CLASSIFICATION_TYPE":"U","NORAD_CAT_ID":30662,"ELEMENT_SET_NO":999,"REV_AT_EPOCH":98251,"BSTAR":0.001561875,"MEAN_MOTION_DOT":3.496e-5,"MEAN_MOTION_DDOT":0},{"OBJECT_NAME":"FENGYUN 1C DEB","OBJECT_ID":"1999-025APV","EPOCH":"2026-04-04T11:11:47.678784","MEAN_MOTION":13.24174427,"ECCENTRICITY":0.06497109,"INCLINATION":99.3019,"RA_OF_ASC_NODE":5.1264,"ARG_OF_PERICENTER":223.869,"MEAN_ANOMALY":130.9061,"EPHEMERIS_TYPE":0,"CLASSIFICATION_TYPE":"U","NORAD_CAT_ID":30663,"ELEMENT_SET_NO":999,"REV_AT_EPOCH":90539,"BSTAR":0.0016147865,"MEAN_MOTION_DOT":2.127e-5,"MEAN_MOTION_DDOT":0},{"OBJECT_NAME":"FENGYUN 1C DEB","OBJECT_ID":"1999-025APX","EPOCH":"2026-04-05T10:29:03.439968","MEAN_MOTION":14.13107638,"ECCENTRICITY":0.00669121,"INCLINATION":99.2176,"RA_OF_ASC_NODE":75.2501,"ARG_OF_PERICENTER":243.6032,"MEAN_ANOMALY":268.6716,"EPHEMERIS_TYPE":0,"CLASSIFICATION_TYPE":"U","NORAD_CAT_ID":30665,"ELEMENT_SET_NO":999,"REV_AT_EPOCH":97575,"BSTAR":0.0016523328,"MEAN_MOTION_DOT":3.107e-5,"MEAN_MOTION_DDOT":0},{"OBJECT_NAME":"FENGYUN 1C DEB","OBJECT_ID":"1999-025APY","EPOCH":"2026-04-05T12:01:38.559936","MEAN_MOTION":14.02689809,"ECCENTRICITY":0.00603342,"INCLINATION":98.8373,"RA_OF_ASC_NODE":80.6539,"ARG_OF_PERICENTER":186.5449,"MEAN_ANOMALY":291.4412,"EPHEMERIS_TYPE":0,"CLASSIFICATION_TYPE":"U","NORAD_CAT_ID":30666,"ELEMENT_SET_NO":999,"REV_AT_EPOCH":97705,"BSTAR":0.00024416061,"MEAN_MOTION_DOT":3.4e-6,"MEAN_MOTION_DDOT":0},{"OBJECT_NAME":"FENGYUN 1C DEB","OBJECT_ID":"1999-025AQA","EPOCH":"2026-04-05T04:31:51.566592","MEAN_MOTION":14.13035304,"ECCENTRICITY":0.00762171,"INCLINATION":99.1197,"RA_OF_ASC_NODE":175.3755,"ARG_OF_PERICENTER":286.1439,"MEAN_ANOMALY":127.8263,"EPHEMERIS_TYPE":0,"CLASSIFICATION_TYPE":"U","NORAD_CAT_ID":30668,"ELEMENT_SET_NO":999,"REV_AT_EPOCH":97657,"BSTAR":0.0019084644,"MEAN_MOTION_DOT":3.615e-5,"MEAN_MOTION_DDOT":0},{"OBJECT_NAME":"FENGYUN 1C DEB","OBJECT_ID":"1999-025AQB","EPOCH":"2026-04-04T17:59:37.618944","MEAN_MOTION":14.03341469,"ECCENTRICITY":0.01165156,"INCLINATION":98.6425,"RA_OF_ASC_NODE":30.7094,"ARG_OF_PERICENTER":219.2409,"MEAN_ANOMALY":203.8796,"EPHEMERIS_TYPE":0,"CLASSIFICATION_TYPE":"U","NORAD_CAT_ID":30669,"ELEMENT_SET_NO":999,"REV_AT_EPOCH":97038,"BSTAR":0.0019678486,"MEAN_MOTION_DOT":3.224e-5,"MEAN_MOTION_DDOT":0},{"OBJECT_NAME":"FENGYUN 1C DEB","OBJECT_ID":"1999-025AQC","EPOCH":"2026-04-04T09:21:34.909632","MEAN_MOTION":14.15874449,"ECCENTRICITY":0.00401336,"INCLINATION":98.6905,"RA_OF_ASC_NODE":141.1951,"ARG_OF_PERICENTER":106.0103,"MEAN_ANOMALY":16.6969,"EPHEMERIS_TYPE":0,"CLASSIFICATION_TYPE":"U","NORAD_CAT_ID":30670,"ELEMENT_SET_NO":999,"REV_AT_EPOCH":98746,"BSTAR":0.00015885641,"MEAN_MOTION_DOT":2.72e-6,"MEAN_MOTION_DDOT":0},{"OBJECT_NAME":"FENGYUN 1C DEB","OBJECT_ID":"1999-025AQD","EPOCH":"2026-04-05T03:36:08.859456","MEAN_MOTION":13.95935025,"ECCENTRICITY":0.01276817,"INCLINATION":99.2377,"RA_OF_ASC_NODE":165.2608,"ARG_OF_PERICENTER":85.0109,"MEAN_ANOMALY":343.277,"EPHEMERIS_TYPE":0,"CLASSIFICATION_TYPE":"U","NORAD_CAT_ID":30671,"ELEMENT_SET_NO":999,"REV_AT_EPOCH":96777,"BSTAR":0.0015921787,"MEAN_MOTION_DOT":2.289e-5,"MEAN_MOTION_DDOT":0},{"OBJECT_NAME":"FENGYUN 1C DEB","OBJECT_ID":"1999-025AQF","EPOCH":"2026-04-05T03:00:26.008992","MEAN_MOTION":14.03526547,"ECCENTRICITY":0.00517779,"INCLINATION":98.8992,"RA_OF_ASC_NODE":146.9897,"ARG_OF_PERICENTER":185.9762,"MEAN_ANOMALY":229.8353,"EPHEMERIS_TYPE":0,"CLASSIFICATION_TYPE":"U","NORAD_CAT_ID":30673,"ELEMENT_SET_NO":999,"REV_AT_EPOCH":98122,"BSTAR":6.3741589e-5,"MEAN_MOTION_DOT":5.8e-7,"MEAN_MOTION_DDOT":0},{"OBJECT_NAME":"FENGYUN 1C DEB","OBJECT_ID":"1999-025AQG","EPOCH":"2026-04-05T11:03:51.636384","MEAN_MOTION":15.58287956,"ECCENTRICITY":0.00219074,"INCLINATION":98.9196,"RA_OF_ASC_NODE":282.9944,"ARG_OF_PERICENTER":290.662,"MEAN_ANOMALY":69.2282,"EPHEMERIS_TYPE":0,"CLASSIFICATION_TYPE":"U","NORAD_CAT_ID":30674,"ELEMENT_SET_NO":999,"REV_AT_EPOCH":99073,"BSTAR":0.022286815,"MEAN_MOTION_DOT":0.0192139,"MEAN_MOTION_DDOT":0},{"OBJECT_NAME":"FENGYUN 1C DEB","OBJECT_ID":"1999-025AQH","EPOCH":"2026-04-05T05:00:05.713344","MEAN_MOTION":14.28347388,"ECCENTRICITY":0.00525549,"INCLINATION":98.7432,"RA_OF_ASC_NODE":179.5257,"ARG_OF_PERICENTER":195.645,"MEAN_ANOMALY":192.3151,"EPHEMERIS_TYPE":0,"CLASSIFICATION_TYPE":"U","NORAD_CAT_ID":30675,"ELEMENT_SET_NO":999,"REV_AT_EPOCH":98511,"BSTAR":0.0017824186,"MEAN_MOTION_DOT":4.476e-5,"MEAN_MOTION_DDOT":0},{"OBJECT_NAME":"FENGYUN 1C DEB","OBJECT_ID":"1999-025AQJ","EPOCH":"2026-04-05T10:08:51.720576","MEAN_MOTION":13.74562043,"ECCENTRICITY":0.04707697,"INCLINATION":98.2753,"RA_OF_ASC_NODE":271.5529,"ARG_OF_PERICENTER":99.7913,"MEAN_ANOMALY":265.6716,"EPHEMERIS_TYPE":0,"CLASSIFICATION_TYPE":"U","NORAD_CAT_ID":30676,"ELEMENT_SET_NO":999,"REV_AT_EPOCH":95485,"BSTAR":0.0014766813,"MEAN_MOTION_DOT":3.115e-5,"MEAN_MOTION_DDOT":0},{"OBJECT_NAME":"FENGYUN 1C DEB","OBJECT_ID":"1999-025AQK","EPOCH":"2026-04-04T14:24:00.058752","MEAN_MOTION":14.39005599,"ECCENTRICITY":0.0064758,"INCLINATION":98.2407,"RA_OF_ASC_NODE":140.334,"ARG_OF_PERICENTER":223.1112,"MEAN_ANOMALY":290.66,"EPHEMERIS_TYPE":0,"CLASSIFICATION_TYPE":"U","NORAD_CAT_ID":30677,"ELEMENT_SET_NO":999,"REV_AT_EPOCH":99602,"BSTAR":0.0017305,"MEAN_MOTION_DOT":5.435e-5,"MEAN_MOTION_DDOT":0},{"OBJECT_NAME":"FENGYUN 1C DEB","OBJECT_ID":"1999-025AQL","EPOCH":"2026-04-05T09:54:00.477792","MEAN_MOTION":14.26100931,"ECCENTRICITY":0.00694654,"INCLINATION":99.0811,"RA_OF_ASC_NODE":65.0902,"ARG_OF_PERICENTER":264.7141,"MEAN_ANOMALY":246.783,"EPHEMERIS_TYPE":0,"CLASSIFICATION_TYPE":"U","NORAD_CAT_ID":30678,"ELEMENT_SET_NO":999,"REV_AT_EPOCH":97494,"BSTAR":0.0031850726,"MEAN_MOTION_DOT":7.771e-5,"MEAN_MOTION_DDOT":0},{"OBJECT_NAME":"FENGYUN 1C DEB","OBJECT_ID":"1999-025AQM","EPOCH":"2026-04-02T19:00:20.947968","MEAN_MOTION":13.79895542,"ECCENTRICITY":0.01728991,"INCLINATION":99.3645,"RA_OF_ASC_NODE":148.5196,"ARG_OF_PERICENTER":145.1265,"MEAN_ANOMALY":285.2164,"EPHEMERIS_TYPE":0,"CLASSIFICATION_TYPE":"U","NORAD_CAT_ID":30679,"ELEMENT_SET_NO":999,"REV_AT_EPOCH":96051,"BSTAR":0.00069576089,"MEAN_MOTION_DOT":7.64e-6,"MEAN_MOTION_DDOT":0},{"OBJECT_NAME":"FENGYUN 1C DEB","OBJECT_ID":"1999-025AQN","EPOCH":"2026-04-05T14:00:11.954880","MEAN_MOTION":13.57123954,"ECCENTRICITY":0.03252491,"INCLINATION":99.6287,"RA_OF_ASC_NODE":140.9304,"ARG_OF_PERICENTER":239.4753,"MEAN_ANOMALY":117.3909,"EPHEMERIS_TYPE":0,"CLASSIFICATION_TYPE":"U","NORAD_CAT_ID":30680,"ELEMENT_SET_NO":999,"REV_AT_EPOCH":93797,"BSTAR":0.0036761986,"MEAN_MOTION_DOT":3.647e-5,"MEAN_MOTION_DDOT":0},{"OBJECT_NAME":"FENGYUN 1C DEB","OBJECT_ID":"1999-025AQR","EPOCH":"2026-04-03T14:53:03.254784","MEAN_MOTION":14.00875083,"ECCENTRICITY":0.0136411,"INCLINATION":99.4142,"RA_OF_ASC_NODE":113.5601,"ARG_OF_PERICENTER":278.811,"MEAN_ANOMALY":211.1983,"EPHEMERIS_TYPE":0,"CLASSIFICATION_TYPE":"U","NORAD_CAT_ID":30683,"ELEMENT_SET_NO":999,"REV_AT_EPOCH":97117,"BSTAR":0.0017682,"MEAN_MOTION_DOT":2.817e-5,"MEAN_MOTION_DDOT":0},{"OBJECT_NAME":"FENGYUN 1C DEB","OBJECT_ID":"1999-025AQS","EPOCH":"2026-04-05T13:53:56.000832","MEAN_MOTION":13.67104474,"ECCENTRICITY":0.02333476,"INCLINATION":99.5154,"RA_OF_ASC_NODE":140.3053,"ARG_OF_PERICENTER":337.7481,"MEAN_ANOMALY":21.3666,"EPHEMERIS_TYPE":0,"CLASSIFICATION_TYPE":"U","NORAD_CAT_ID":30684,"ELEMENT_SET_NO":999,"REV_AT_EPOCH":95184,"BSTAR":0.00090033347,"MEAN_MOTION_DOT":8.65e-6,"MEAN_MOTION_DDOT":0},{"OBJECT_NAME":"FENGYUN 1C DEB","OBJECT_ID":"1999-025AQU","EPOCH":"2026-04-05T13:52:55.101792","MEAN_MOTION":14.75365972,"ECCENTRICITY":0.01409229,"INCLINATION":99.028,"RA_OF_ASC_NODE":307.5433,"ARG_OF_PERICENTER":125.7806,"MEAN_ANOMALY":294.3498,"EPHEMERIS_TYPE":0,"CLASSIFICATION_TYPE":"U","NORAD_CAT_ID":30686,"ELEMENT_SET_NO":999,"REV_AT_EPOCH":1280,"BSTAR":0.00078075604,"MEAN_MOTION_DOT":6.16e-5,"MEAN_MOTION_DDOT":0},{"OBJECT_NAME":"FENGYUN 1C DEB","OBJECT_ID":"1999-025AQW","EPOCH":"2026-04-05T03:51:10.394208","MEAN_MOTION":14.33806855,"ECCENTRICITY":0.00137715,"INCLINATION":98.6885,"RA_OF_ASC_NODE":174.0195,"ARG_OF_PERICENTER":347.4156,"MEAN_ANOMALY":41.8906,"EPHEMERIS_TYPE":0,"CLASSIFICATION_TYPE":"U","NORAD_CAT_ID":30688,"ELEMENT_SET_NO":999,"REV_AT_EPOCH":98885,"BSTAR":0.0018706441,"MEAN_MOTION_DOT":5.166e-5,"MEAN_MOTION_DDOT":0},{"OBJECT_NAME":"FENGYUN 1C DEB","OBJECT_ID":"1999-025AQX","EPOCH":"2026-04-05T11:30:58.392864","MEAN_MOTION":14.11989244,"ECCENTRICITY":0.01111841,"INCLINATION":98.7215,"RA_OF_ASC_NODE":83.518,"ARG_OF_PERICENTER":139.6069,"MEAN_ANOMALY":347.4808,"EPHEMERIS_TYPE":0,"CLASSIFICATION_TYPE":"U","NORAD_CAT_ID":30689,"ELEMENT_SET_NO":999,"REV_AT_EPOCH":98495,"BSTAR":0.0004312309,"MEAN_MOTION_DOT":7.95e-6,"MEAN_MOTION_DDOT":0},{"OBJECT_NAME":"FENGYUN 1C DEB","OBJECT_ID":"1999-025AQY","EPOCH":"2026-04-05T13:58:23.811456","MEAN_MOTION":14.03027764,"ECCENTRICITY":0.0102668,"INCLINATION":99.1646,"RA_OF_ASC_NODE":31.661,"ARG_OF_PERICENTER":121.1641,"MEAN_ANOMALY":58.1853,"EPHEMERIS_TYPE":0,"CLASSIFICATION_TYPE":"U","NORAD_CAT_ID":30690,"ELEMENT_SET_NO":999,"REV_AT_EPOCH":97303,"BSTAR":0.001850368,"MEAN_MOTION_DOT":2.968e-5,"MEAN_MOTION_DDOT":0},{"OBJECT_NAME":"FENGYUN 1C DEB","OBJECT_ID":"1999-025AQZ","EPOCH":"2026-04-04T23:26:04.922304","MEAN_MOTION":13.89800451,"ECCENTRICITY":0.01375774,"INCLINATION":98.7423,"RA_OF_ASC_NODE":104.5522,"ARG_OF_PERICENTER":283.3209,"MEAN_ANOMALY":142.1822,"EPHEMERIS_TYPE":0,"CLASSIFICATION_TYPE":"U","NORAD_CAT_ID":30691,"ELEMENT_SET_NO":999,"REV_AT_EPOCH":96689,"BSTAR":0.0012173328,"MEAN_MOTION_DOT":1.572e-5,"MEAN_MOTION_DDOT":0}]
